ONEWEB-0379             
1 49305U 21090AC  25187.84370695  .00000264  00000+0  67642-3 0  9997
2 49305  87.9039 358.4137 0001860  96.9249 263.2092 13.14503229183493
ONEWEB-0380             
1 49306U 21090AD  25187.53637286  .00000065  00000+0  12960-3 0  9998
2 49306  87.9214  13.6885 0001689  87.7672 272.3654 13.19725579180835
ONEWEB-0381             
1 49307U 21090AE  25187.48007973  .00000026  00000+0  33168-4 0  9998
2 49307  87.9273 343.3003 0001564  95.0974 265.0338 13.20773043184197
ONEWEB-0382             
1 49308U 21090AF  25187.39168622 -.00000202  00000+0 -52843-3 0  9996
2 49308  87.9271 343.3119 0001607 104.0612 256.0700 13.20770978184177
ONEWEB-0383             
1 49309U 21090AG  25187.53288890  .00000228  00000+0  58152-3 0  9998
2 49309  87.9037 358.4554 0001858  99.5669 260.5671 13.14502910182184
ONEWEB-0384             
1 49310U 21090AH  25187.46333618  .00000057  00000+0  10763-3 0  9997
2 49310  87.9274 343.3148 0001637 112.0520 248.0787 13.20786450184195
ONEWEB-0385             
1 49311U 21090AJ  25187.83833630  .00000045  00000+0  79880-4 0  9991
2 49311  87.9264 343.2409 0001753  98.8510 261.2822 13.20772755185532
ONEWEB-0386             
1 49312U 21090AK  25187.85570476  .00000127  00000+0  28141-3 0  9994
2 49312  87.9269 343.2071 0001743 105.0911 255.0415 13.20771551185541
